ONEWEB-0324             
1 49193U 21083H   22028.41667824 -.00037539  00000+0 -95623-1 0  9996
2 49193  87.9123 293.6509 0002328  81.7105 131.8127 13.18699013 20308
ONEWEB-0325             
1 49194U 21083J   22028.41667824 -.00037685  00000+0 -95998-1 0  9994
2 49194  87.9122 293.5395 0001471 122.0411  76.7127 13.18698480 20312
ONEWEB-0326             
1 49195U 21083K   22028.41667824 -.00037688  00000+0 -95996-1 0  9996
2 49195  87.9128 293.6334 0002038  87.3646  60.0258 13.18705119 20304
ONEWEB-0327             
1 49196U 21083L   22028.41667824 -.00037328  00000+0 -95084-1 0  9996
2 49196  87.9135 293.5875 0002996  76.7304 144.1412 13.18698336 20328
ONEWEB-0328             
1 49197U 21083M   22028.41667824 -.01195653  00000+0 -20212+0 0  9993
2 49197  87.5512 281.1310 0018665 171.3951 350.0790 14.72725662 21558
ONEWEB-0331             
1 49198U 21083N   22028.41667824 -.00037894  00000+0 -96524-1 0  9996
2 49198  87.9138 293.6333 0002174  80.5711  88.8559 13.18704908 20314
ONEWEB-0333             
1 49199U 21083P   22027.91667824 -.00949199  00000+0 -15061+0 0  9996
2 49199  87.5456 281.3154 0018418 175.9560 217.6912 14.75230270  3538
ONEWEB-0334             
1 49200U 21083Q   22028.25002315 -.00062533  00000+0 -65741-2 0  9996
2 49200  87.2015 280.1455 0021574 166.2327  49.0269 14.89713871 21564
ONEWEB-0335             
1 49201U 21083R   22028.41667824 -.01203227  00000+0 -19954+0 0  9997
2 49201  87.5480 281.1861 0019922 164.2984 133.5211 14.73549969 21549
ONEWEB-0336             
1 49202U 21083S   22028.41667824 -.01074230  00000+0 -17588+0 0  9999
2 49202  87.5463 281.1492 0020341 158.1167 212.1147 14.73736016 21546
ONEWEB-0337             
1 49203U 21083T   22027.91667824 -.00951260  00000+0 -14876+0 0  9997
2 49203  87.5446 281.3113 0021755 166.7881  89.6389 14.75796616  3570
ONEWEB-0338             
1 49204U 21083U   22027.91667824 -.00027549  00000+0 -28849-2 0  9990
2 49204  87.2075 280.3621 0021070 177.1854 306.4053 14.89705753  3604
ONEWEB-0339             
1 49205U 21083V   22027.91667824 -.00965751  00000+0 -15562+0 0  9992
2 49205  87.5453 281.2880 0018909 168.6922 120.6050 14.74615376  3577
ONEWEB-0340             
1 49206U 21083W   22028.41667824 -.00037208  00000+0 -94778-1 0  9994
2 49206  87.9124 293.6422 0001869  87.1002 141.1155 13.18698468 20288
ONEWEB-0341             
1 49207U 21083X   22028.41667824 -.00037747  00000+0 -96155-1 0  9994
2 49207  87.9147 293.5309 0001995 117.3095  74.1508 13.18700466 20307
ONEWEB-0342             
1 49208U 21083Y   22028.25002315 -.00085594  00000+0 -90175-2 0  9995
2 49208  87.2038 280.1817 0022171 161.3426 112.2235 14.89744056 21564
ONEWEB-0343             
1 49209U 21083Z   22028.41667824 -.00037627  00000+0 -95848-1 0  9991
2 49209  87.9137 293.5877 0001699 131.6503  74.4941 13.18699802 20352
ONEWEB-0344             
1 49210U 21083AA  22027.91667824 -.00958273  00000+0 -15478+0 0  9995
2 49210  87.5449 281.2811 0020527 161.4304  11.2707 14.74461436  3565
ONEWEB-0345             
1 49211U 21083AB  22028.41667824 -.00723992  00000+0 -12009+0 0  9997
2 49211  87.5500 281.1625 0020353 162.3928 171.8037 14.72975689 21540
ONEWEB-0346             
1 49212U 21083AC  22028.41667824 -.00037854  00000+0 -96429-1 0  9993
2 49212  87.9138 293.5828 0002420  80.0439  96.7330 13.18699300 20296
ONEWEB-0348             
1 49213U 21083AD  22027.91667824 -.00029151  00000+0 -30532-2 0  9993
2 49213  87.2062 280.3430 0021432 166.8687  82.1837 14.89698785  3579
ONEWEB-0350             
1 49214U 21083AE  22028.25002315 -.00973886  00000+0 -15489+0 0  9994
2 49214  87.5455 281.1994 0017747 169.6130 151.8088 14.75221044 21523
ONEWEB-0351             
1 49215U 21083AF  22028.25002315 -.00052724  00000+0 -55394-2 0  9996
2 49215  87.1996 280.1097 0019422 158.9729 204.7240 14.89721591 21570
ONEWEB-0352             
1 49216U 21083AG  22028.41667824 -.00026169  00000+0 -39232-2 0  9994
2 49216  87.5438 281.1481 0018869 162.7498 273.9989 14.74783301 21551
ONEWEB-0354             
1 49217U 21083AH  22028.25002315 -.00083566  00000+0 -88117-2 0  9995
2 49217  87.2046 280.1878 0019664 155.8997  96.4594 14.89738571 21582
ONEWEB-0355             
1 49218U 21083AJ  22027.91667824 -.00955252  00000+0 -15689+0 0  9991
2 49218  87.5492 281.2786 0017950 172.8688 184.7851 14.73779763  3570
ONEWEB-0357             
1 49219U 21083AK  22028.25002315 -.00076279  00000+0 -80327-2 0  9995
2 49219  87.2039 280.1876 0020639 166.3429  23.2487 14.89736291 21569
ONEWEB-0332             
1 49279U 21090A   22028.25002315 -.00057950  00000+0 -62881-2 0  9999
2 49279  87.1976 256.1351 0005560 231.2328 183.0949 14.88583648 15871
ONEWEB-0347             
1 49280U 21090B   22028.25002315 -.00058482  00000+0 -63568-2 0  9995
2 49280  87.2009 256.1857 0007062 266.6967 189.6450 14.88508350 15867
ONEWEB-0349             
1 49281U 21090C   22027.91667824  .00019158  00000+0  19290-2 0  9998
2 49281  87.2037 256.1750 0009722 243.4235 125.1999 14.91048690  3586
ONEWEB-0353             
1 49282U 21090D   22028.25002315 -.00058049  00000+0 -63156-2 0  9999
2 49282  87.1986 256.1393 0006999 233.9766 198.0326 14.88469040 17151
ONEWEB-0356             
1 49283U 21090E   22028.25002315 -.00059943  00000+0 -61189-2 0  9998
2 49283  87.2027 256.0641 0005199 253.8936 232.9941 14.91057992 17171
ONEWEB-0358             
1 49284U 21090F   22028.25002315 -.00057991  00000+0 -62996-2 0  9997
2 49284  87.1976 256.1303 0005542 229.3914 192.4909 14.88538810 17157
ONEWEB-0359             
1 49285U 21090G   22028.25002315 -.00060870  00000+0 -66164-2 0  9999
2 49285  87.2012 256.1829 0006091 266.0647 256.3496 14.88526780 17147
ONEWEB-0360             
1 49286U 21090H   22028.25002315 -.00058837  00000+0 -60057-2 0  9995
2 49286  87.2036 256.0749 0004153 239.9129 226.1818 14.91058622 17170
ONEWEB-0361             
1 49287U 21090J   22028.25002315 -.00061001  00000+0 -62227-2 0  9994
2 49287  87.2031 256.0670 0006064 255.1126 301.6025 14.91086900 17189
ONEWEB-0362             
1 49288U 21090K   22027.91667824  .00002568  00000+0  52363-2 0  9990
2 49288  87.9700 263.2255 0003215 290.8396 114.0763 13.32892048  3361
ONEWEB-0363             
1 49289U 21090L   22028.25002315 -.00058444  00000+0 -59658-2 0  9997
2 49289  87.2052 256.0969 0003724 243.7779 201.7077 14.91056224 17174
ONEWEB-0364             
1 49290U 21090M   22028.25002315 -.00060736  00000+0 -66206-2 0  9993
2 49290  87.2019 256.1959 0008421 261.0224 256.0520 14.88397021 17148
ONEWEB-0365             
1 49291U 21090N   22027.91667824 -.00004350  00000+0 -89079-2 0  9991
2 49291  87.9675 263.2103 0001073 315.6891 251.7046 13.33211995  3409
ONEWEB-0366             
1 49292U 21090P   22027.91667824  .00019032  00000+0  20446-2 0  9996
2 49292  87.2000 256.2750 0006184 234.6503 154.1642 14.88457460 17103
ONEWEB-0367             
1 49293U 21090Q   22028.25002315 -.00058084  00000+0 -59226-2 0  9993
2 49293  87.2074 256.1238 0004075 243.2576 178.3146 14.91096473 17179
ONEWEB-0368             
1 49294U 21090R   22028.25002315 -.00060067  00000+0 -65269-2 0  9992
2 49294  87.2042 256.2180 0008224 247.5602 340.0184 14.88523494 17151
ONEWEB-0369             
1 49295U 21090S   22028.16667824 -.00015041  00000+0 -30820-1 0  9991
2 49295  87.9688 263.1131 0002101 284.7352 189.2493 13.33111637 16528
ONEWEB-0370             
1 49296U 21090T   22028.25002315 -.00060688  00000+0 -61934-2 0  9998
2 49296  87.2013 256.0416 0007776 250.0832 320.3167 14.91058382 17207
ONEWEB-0371             
1 49297U 21090U   22028.41667824 -.00090781  00000+0 -18751+0 0  9992
2 49297  87.9666 263.0090 0005370 327.5942  73.6225 13.33094141 16597
ONEWEB-0372             
1 49298U 21090V   22027.91667824  .00018475  00000+0  18608-2 0  9999
2 49298  87.2027 256.1592 0009019 246.6429  92.4338 14.91042509  3537
ONEWEB-0373             
1 49299U 21090W   22027.92136516  .00000753  00000+0  78245-4 0  9995
2 49299  87.1993 256.2785 0005930 236.7771 123.2888 14.88465184 15813
ONEWEB-0374             
1 49300U 21090X   22027.91667824  .00019334  00000+0  20763-2 0  9993
2 49300  87.2025 256.3205 0006019 271.9098 144.4777 14.88472749  3536
ONEWEB-0375             
1 49301U 21090Y   22028.25002315 -.00059024  00000+0 -64151-2 0  9991
2 49301  87.1973 256.1326 0003568 232.3132 235.8930 14.88531448 17157
ONEWEB-0376             
1 49302U 21090Z   22028.25002315 -.00037509  00000+0 -77397-1 0  9991
2 49302  87.9723 263.0983 0004767 311.6145  42.6132 13.32780541 16551
ONEWEB-0377             
1 49303U 21090AA  22028.25002315 -.00060995  00000+0 -66313-2 0  9994
2 49303  87.2018 256.2008 0004925 274.2268 259.0488 14.88525204 17138
ONEWEB-0378             
1 49304U 21090AB  22027.91667824  .00020001  00000+0  20146-2 0  9995
2 49304  87.1980 256.1016 0009105 216.5548 183.0455 14.91035688  3545
ONEWEB-0379             
1 49305U 21090AC  22028.25002315 -.00060792  00000+0 -66035-2 0  9992
2 49305  87.2011 256.1773 0008381 250.9860 308.5364 14.88540000 17156
ONEWEB-0380             
1 49306U 21090AD  22027.93033629 -.00000190  00000+0 -41567-3 0  9999
2 49306  87.9652 263.1944 0003493 317.0219  43.0648 13.33073471 15218
ONEWEB-0381             
1 49307U 21090AE  22027.91667824  .00015882  00000+0  16004-2 0  9997
2 49307  87.2060 256.2186 0004973 255.5424 288.0688 14.91051390  3576
ONEWEB-0382             
1 49308U 21090AF  22028.25002315 -.00059865  00000+0 -61004-2 0  9995
2 49308  87.2012 256.0165 0009366 225.0744 259.3035 14.91101785 17191
ONEWEB-0383             
1 49309U 21090AG  22028.25002315 -.00060420  00000+0 -65860-2 0  9999
2 49309  87.2001 256.1613 0008700 243.8355 260.6809 14.88394722 17168
ONEWEB-0384             
1 49310U 21090AH  22028.25002315 -.00059248  00000+0 -60433-2 0  9998
2 49310  87.2004 256.0259 0008854 221.7969 247.3273 14.91063459 17198
